{"type": "FeatureCollection", "features": [{"type": "Feature", "properties": {"norad_id": 49537, "name": "COSMOS 1408 DEB", "group": "cosmos-1408-debris", "lat": 49.289619224454725, "lon": -83.49806532382017, "alt_km": 139.70942450604343, "timestamp": "2025-12-02T23:34:15.786854+00:00", "meta": {"OBJECT_NAME": "COSMOS 1408 DEB", "OBJECT_ID": "1982-092AA", "EPOCH": "2025-12-01T10:29:21.651360", "MEAN_MOTION": 16.33498888, "ECCENTRICITY": 0.00127731, "INCLINATION": 82.5092, "RA_OF_ASC_NODE": 107.1368, "ARG_OF_PERICENTER": 299.8571, "MEAN_ANOMALY": 60.1455, "EPHEMERIS_TYPE": 0, "CLASSIFICATION_TYPE": "U", "NORAD_CAT_ID": 49537, "ELEMENT_SET_NO": 999, "REV_AT_EPOCH": 22403, "BSTAR": 0.00094222941, "MEAN_MOTION_DOT": 0.05878558, "MEAN_MOTION_DDOT": -1.252052e-06}, "tle": {"line1": "1 49537U 82092AA  25335.43705615  .05878558 -12521-5  94223-3 0  9994", "line2": "2 49537  82.5092 107.1368 0012773 299.8571  60.1455 16.33498888224033"}}, "geometry": {"type": "Point", "coordinates": [-83.49806532382017, 49.289619224454725]}}, {"type": "Feature", "properties": {"norad_id": 50032, "name": "COSMOS 1408 DEB", "group": "cosmos-1408-debris", "lat": -48.29166347598495, "lon": -103.06656853608638, "alt_km": 427.24849073423684, "timestamp": "2025-12-02T23:34:15.786873+00:00", "meta": {"OBJECT_NAME": "COSMOS 1408 DEB", "OBJECT_ID": "1982-092RU", "EPOCH": "2025-12-02T07:02:40.319808", "MEAN_MOTION": 15.45526485, "ECCENTRICITY": 0.0014644, "INCLINATION": 82.5651, "RA_OF_ASC_NODE": 69.2131, "ARG_OF_PERICENTER": 249.5903, "MEAN_ANOMALY": 110.3774, "EPHEMERIS_TYPE": 0, "CLASSIFICATION_TYPE": "U", "NORAD_CAT_ID": 50032, "ELEMENT_SET_NO": 999, "REV_AT_EPOCH": 22442, "BSTAR": 0.00014391, "MEAN_MOTION_DOT": 6.972e-05, "MEAN_MOTION_DDOT": 0}, "tle": {"line1": "1 50032U 82092RU  25336.29352222  .00006972  00000+0  14391-3 0  9991", "line2": "2 50032  82.5651  69.2131 0014644 249.5903 110.3774 15.45526485224424"}}, "geometry": {"type": "Point", "coordinates": [-103.06656853608638, -48.29166347598495]}}, {"type": "Feature", "properties": {"norad_id": 50058, "name": "COSMOS 1408 DEB", "group": "cosmos-1408-debris", "lat": 21.996275139758218, "lon": -103.45743828901267, "alt_km": 368.2659087949314, "timestamp": "2025-12-02T23:34:15.786886+00:00", "meta": {"OBJECT_NAME": "COSMOS 1408 DEB", "OBJECT_ID": "1982-092SW", "EPOCH": "2025-12-02T07:32:09.716640", "MEAN_MOTION": 15.63161945, "ECCENTRICITY": 0.0016231, "INCLINATION": 82.6139, "RA_OF_ASC_NODE": 80.2446, "ARG_OF_PERICENTER": 135.9979, "MEAN_ANOMALY": 224.2575, "EPHEMERIS_TYPE": 0, "CLASSIFICATION_TYPE": "U", "NORAD_CAT_ID": 50058, "ELEMENT_SET_NO": 999, "REV_AT_EPOCH": 22641, "BSTAR": 0.00041635, "MEAN_MOTION_DOT": 0.00038367, "MEAN_MOTION_DDOT": 0}, "tle": {"line1": "1 50058U 82092SW  25336.31400135  .00038367  00000+0  41635-3 0  9993", "line2": "2 50058  82.6139  80.2446 0016231 135.9979 224.2575 15.63161945226412"}}, "geometry": {"type": "Point", "coordinates": [-103.45743828901267, 21.996275139758218]}}, {"type": "Feature", "properties": {"norad_id": 50404, "name": "COSMOS 1408 DEB", "group": "cosmos-1408-debris", "lat": -71.76001425306283, "lon": 69.56295133746615, "alt_km": 423.74183344866833, "timestamp": "2025-12-02T23:34:15.786898+00:00", "meta": {"OBJECT_NAME": "COSMOS 1408 DEB", "OBJECT_ID": "1982-092ADS", "EPOCH": "2025-12-02T03:23:04.900416", "MEAN_MOTION": 15.11568017, "ECCENTRICITY": 0.01770451, "INCLINATION": 82.207, "RA_OF_ASC_NODE": 225.8658, "ARG_OF_PERICENTER": 235.6536, "MEAN_ANOMALY": 122.7837, "EPHEMERIS_TYPE": 0, "CLASSIFICATION_TYPE": "U", "NORAD_CAT_ID": 50404, "ELEMENT_SET_NO": 999, "REV_AT_EPOCH": 21033, "BSTAR": 0.0031085451, "MEAN_MOTION_DOT": 0.00077873, "MEAN_MOTION_DDOT": 0}, "tle": {"line1": "1 50404U 82092ADS 25336.14102894  .00077873  00000+0  31085-2 0  9992", "line2": "2 50404  82.2070 225.8658 0177045 235.6536 122.7837 15.11568017210338"}}, "geometry": {"type": "Point", "coordinates": [69.56295133746615, -71.76001425306283]}}, {"type": "Feature", "properties": {"norad_id": 50621, "name": "COSMOS 1408 DEB", "group": "cosmos-1408-debris", "lat": 71.27073123397653, "lon": 106.96935236325507, "alt_km": 401.1402055382159, "timestamp": "2025-12-02T23:34:15.786909+00:00", "meta": {"OBJECT_NAME": "COSMOS 1408 DEB", "OBJECT_ID": "1982-092ALR", "EPOCH": "2025-12-02T07:49:19.521696", "MEAN_MOTION": 15.55826479, "ECCENTRICITY": 0.0028896, "INCLINATION": 82.5701, "RA_OF_ASC_NODE": 85.0139, "ARG_OF_PERICENTER": 190.6578, "MEAN_ANOMALY": 169.4068, "EPHEMERIS_TYPE": 0, "CLASSIFICATION_TYPE": "U", "NORAD_CAT_ID": 50621, "ELEMENT_SET_NO": 999, "REV_AT_EPOCH": 22088, "BSTAR": 0.00047538, "MEAN_MOTION_DOT": 0.00033585, "MEAN_MOTION_DDOT": 0}, "tle": {"line1": "1 50621U 82092ALR 25336.32592039  .00033585  00000+0  47538-3 0  9990", "line2": "2 50621  82.5701  85.0139 0028896 190.6578 169.4068 15.55826479220880"}}, "geometry": {"type": "Point", "coordinates": [106.96935236325507, 71.27073123397653]}}]}